ONEWEB-0323             
1 49106U 21075AH  26021.89413973  .00000392  00000+0  10531-2 0  9995
2 49106  87.8936  19.6893 0002473  90.2002 269.9410 13.12444973215364
ONEWEB-0329             
1 49107U 21075AJ  26022.30846682  .00000032  00000+0  48373-4 0  9998
2 49107  87.9083  34.8620 0001929  94.1170 266.0182 13.17650136214379
ONEWEB-0330             
1 49108U 21075AK  26022.30930660  .00000081  00000+0  17611-3 0  9993
2 49108  87.9084  34.8688 0001852  98.8313 261.3028 13.17649723214412
ONEWEB-0292             
1 49186U 21083A   26021.90458307  .00000251  00000+0  65341-3 0  9998
2 49186  87.9002 349.3266 0001968  81.5423 278.5929 13.13470040211724
ONEWEB-0303             
1 49187U 21083B   26021.86239202 -.00000035  00000+0 -12124-3 0  9998
2 49187  87.9196   4.5068 0002001  85.3590 274.7770 13.18685959210694
ONEWEB-0306             
1 49188U 21083C   26022.23187543  .00000019  00000+0  16293-4 0  9993
2 49188  87.9196   4.4173 0001586  86.8888 273.2426 13.18687160210782
ONEWEB-0307             
1 49189U 21083D   26022.20336927  .00000339  00000+0  89387-3 0  9991
2 49189  87.9001 349.2572 0001817  82.1142 278.0193 13.13468902211769
ONEWEB-0320             
1 49190U 21083E   26021.85992305  .00000005  00000+0 -19470-4 0  9999
2 49190  87.9189   4.5182 0001810  86.2595 273.8744 13.18685344210698
ONEWEB-0321             
1 49191U 21083F   26022.21759925  .00000188  00000+0  43083-3 0  9997
2 49191  87.9233 303.5587 0001407  75.9502 284.1788 13.20772617217564
ONEWEB-0322             
1 49192U 21083G   26022.19913768  .00000484  00000+0  12905-2 0  9999
2 49192  87.9005 349.2617 0001384  71.7228 288.4051 13.13469996211756
ONEWEB-0324             
1 49193U 21083H   26022.22527924  .00000057  00000+0  11181-3 0  9991
2 49193  87.9192   4.4249 0001822  90.3333 269.8008 13.18685892210761
ONEWEB-0325             
1 49194U 21083J   26022.22856593  .00000067  00000+0  13723-3 0  9994
2 49194  87.9192   4.4438 0001795  82.9162 277.2174 13.18686700210775
ONEWEB-0326             
1 49195U 21083K   26022.24356689  .00000094  00000+0  20461-3 0  9995
2 49195  87.9197   4.4280 0002146  82.9480 277.1896 13.18685553210764
ONEWEB-0327             
1 49196U 21083L   26022.24329180  .00000043  00000+0  77324-4 0  9997
2 49196  87.9187   4.4440 0002085  78.3067 281.8299 13.18686611210781
ONEWEB-0328             
1 49197U 21083M   26022.26515987  .00000227  00000+0  58774-3 0  9993
2 49197  87.9015 349.2017 0001819  86.9996 273.1341 13.13470427211742
ONEWEB-0331             
1 49198U 21083N   26022.23682409  .00000103  00000+0  22942-3 0  9996
2 49198  87.9196   4.4222 0002171  87.5448 272.5933 13.18685819210772
ONEWEB-0333             
1 49199U 21083P   26022.26007927  .00000160  00000+0  40232-3 0  9991
2 49199  87.8999 349.2488 0001814  80.5155 279.6179 13.13470757211755
