[{"OBJECT_NAME":"ONEWEB-0323","OBJECT_ID":"2021-075AH","EPOCH":"2026-01-21T21:27:33.672672","MEAN_MOTION":13.12444973,"ECCENTRICITY":0.00024739,"INCLINATION":87.8936,"RA_OF_ASC_NODE":19.6893,"ARG_OF_PERICENTER":90.2002,"MEAN_ANOMALY":269.941,"EPHEMERIS_TYPE":0,"CLASSIFICATION_TYPE":"U","NORAD_CAT_ID":49106,"ELEMENT_SET_NO":999,"REV_AT_EPOCH":21536,"BSTAR":0.0010530831,"MEAN_MOTION_DOT":3.92e-6,"MEAN_MOTION_DDOT":0},{"OBJECT_NAME":"ONEWEB-0329","OBJECT_ID":"2021-075AJ","EPOCH":"2026-01-22T07:24:11.533248","MEAN_MOTION":13.17650136,"ECCENTRICITY":0.00019292,"INCLINATION":87.9083,"RA_OF_ASC_NODE":34.862,"ARG_OF_PERICENTER":94.117,"MEAN_ANOMALY":266.0182,"EPHEMERIS_TYPE":0,"CLASSIFICATION_TYPE":"U","NORAD_CAT_ID":49107,"ELEMENT_SET_NO":999,"REV_AT_EPOCH":21437,"BSTAR":4.837276e-5,"MEAN_MOTION_DOT":3.2e-7,"MEAN_MOTION_DDOT":0},{"OBJECT_NAME":"ONEWEB-0330","OBJECT_ID":"2021-075AK","EPOCH":"2026-01-22T07:25:24.090240","MEAN_MOTION":13.17649723,"ECCENTRICITY":0.00018527,"INCLINATION":87.9084,"RA_OF_ASC_NODE":34.8688,"ARG_OF_PERICENTER":98.8313,"MEAN_ANOMALY":261.3028,"EPHEMERIS_TYPE":0,"CLASSIFICATION_TYPE":"U","NORAD_CAT_ID":49108,"ELEMENT_SET_NO":999,"REV_AT_EPOCH":21441,"BSTAR":0.0001761093,"MEAN_MOTION_DOT":8.1e-7,"MEAN_MOTION_DDOT":0},{"OBJECT_NAME":"ONEWEB-0292","OBJECT_ID":"2021-083A","EPOCH":"2026-01-21T21:42:35.977248","MEAN_MOTION":13.1347004,"ECCENTRICITY":0.00019684,"INCLINATION":87.9002,"RA_OF_ASC_NODE":349.3266,"ARG_OF_PERICENTER":81.5423,"MEAN_ANOMALY":278.5929,"EPHEMERIS_TYPE":0,"CLASSIFICATION_TYPE":"U","NORAD_CAT_ID":49186,"ELEMENT_SET_NO":999,"REV_AT_EPOCH":21172,"BSTAR":0.00065341002,"MEAN_MOTION_DOT":2.51e-6,"MEAN_MOTION_DDOT":0},{"OBJECT_NAME":"ONEWEB-0303","OBJECT_ID":"2021-083B","EPOCH":"2026-01-21T20:41:50.670528","MEAN_MOTION":13.18685959,"ECCENTRICITY":0.00020012,"INCLINATION":87.9196,"RA_OF_ASC_NODE":4.5068,"ARG_OF_PERICENTER":85.359,"MEAN_ANOMALY":274.777,"EPHEMERIS_TYPE":0,"CLASSIFICATION_TYPE":"U","NORAD_CAT_ID":49187,"ELEMENT_SET_NO":999,"REV_AT_EPOCH":21069,"BSTAR":-0.00012124108,"MEAN_MOTION_DOT":-3.5e-7,"MEAN_MOTION_DDOT":0},{"OBJECT_NAME":"ONEWEB-0306","OBJECT_ID":"2021-083C","EPOCH":"2026-01-22T05:33:54.037152","MEAN_MOTION":13.1868716,"ECCENTRICITY":0.00015864,"INCLINATION":87.9196,"RA_OF_ASC_NODE":4.4173,"ARG_OF_PERICENTER":86.8888,"MEAN_ANOMALY":273.2426,"EPHEMERIS_TYPE":0,"CLASSIFICATION_TYPE":"U","NORAD_CAT_ID":49188,"ELEMENT_SET_NO":999,"REV_AT_EPOCH":21078,"BSTAR":1.6293316e-5,"MEAN_MOTION_DOT":1.9e-7,"MEAN_MOTION_DDOT":0},{"OBJECT_NAME":"ONEWEB-0307","OBJECT_ID":"2021-083D","EPOCH":"2026-01-22T04:52:51.104928","MEAN_MOTION":13.13468902,"ECCENTRICITY":0.00018174,"INCLINATION":87.9001,"RA_OF_ASC_NODE":349.2572,"ARG_OF_PERICENTER":82.1142,"MEAN_ANOMALY":278.0193,"EPHEMERIS_TYPE":0,"CLASSIFICATION_TYPE":"U","NORAD_CAT_ID":49189,"ELEMENT_SET_NO":999,"REV_AT_EPOCH":21176,"BSTAR":0.00089387408,"MEAN_MOTION_DOT":3.39e-6,"MEAN_MOTION_DDOT":0},{"OBJECT_NAME":"ONEWEB-0320","OBJECT_ID":"2021-083E","EPOCH":"2026-01-21T20:38:17.351520","MEAN_MOTION":13.18685344,"ECCENTRICITY":0.00018103,"INCLINATION":87.9189,"RA_OF_ASC_NODE":4.5182,"ARG_OF_PERICENTER":86.2595,"MEAN_ANOMALY":273.8744,"EPHEMERIS_TYPE":0,"CLASSIFICATION_TYPE":"U","NORAD_CAT_ID":49190,"ELEMENT_SET_NO":999,"REV_AT_EPOCH":21069,"BSTAR":-1.9470311e-5,"MEAN_MOTION_DOT":5.0e-8,"MEAN_MOTION_DDOT":0},{"OBJECT_NAME":"ONEWEB-0321","OBJECT_ID":"2021-083F","EPOCH":"2026-01-22T05:13:20.575200","MEAN_MOTION":13.20772617,"ECCENTRICITY":0.00014071,"INCLINATION":87.9233,"RA_OF_ASC_NODE":303.5587,"ARG_OF_PERICENTER":75.9502,"MEAN_ANOMALY":284.1788,"EPHEMERIS_TYPE":0,"CLASSIFICATION_TYPE":"U","NORAD_CAT_ID":49191,"ELEMENT_SET_NO":999,"REV_AT_EPOCH":21756,"BSTAR":0.00043083201,"MEAN_MOTION_DOT":1.88e-6,"MEAN_MOTION_DDOT":0},{"OBJECT_NAME":"ONEWEB-0322","OBJECT_ID":"2021-083G","EPOCH":"2026-01-22T04:46:45.495552","MEAN_MOTION":13.13469996,"ECCENTRICITY":0.00013848,"INCLINATION":87.9005,"RA_OF_ASC_NODE":349.2617,"ARG_OF_PERICENTER":71.7228,"MEAN_ANOMALY":288.4051,"EPHEMERIS_TYPE":0,"CLASSIFICATION_TYPE":"U","NORAD_CAT_ID":49192,"ELEMENT_SET_NO":999,"REV_AT_EPOCH":21175,"BSTAR":0.0012904741,"MEAN_MOTION_DOT":4.84e-6,"MEAN_MOTION_DDOT":0},{"OBJECT_NAME":"ONEWEB-0324","OBJECT_ID":"2021-083H","EPOCH":"2026-01-22T05:24:24.126336","MEAN_MOTION":13.18685892,"ECCENTRICITY":0.00018229,"INCLINATION":87.9192,"RA_OF_ASC_NODE":4.4249,"ARG_OF_PERICENTER":90.3333,"MEAN_ANOMALY":269.8008,"EPHEMERIS_TYPE":0,"CLASSIFICATION_TYPE":"U","NORAD_CAT_ID":49193,"ELEMENT_SET_NO":999,"REV_AT_EPOCH":21076,"BSTAR":0.00011181071,"MEAN_MOTION_DOT":5.7e-7,"MEAN_MOTION_DDOT":0},{"OBJECT_NAME":"ONEWEB-0325","OBJECT_ID":"2021-083J","EPOCH":"2026-01-22T05:29:08.096352","MEAN_MOTION":13.186867,"ECCENTRICITY":0.00017952,"INCLINATION":87.9192,"RA_OF_ASC_NODE":4.4438,"ARG_OF_PERICENTER":82.9162,"MEAN_ANOMALY":277.2174,"EPHEMERIS_TYPE":0,"CLASSIFICATION_TYPE":"U","NORAD_CAT_ID":49194,"ELEMENT_SET_NO":999,"REV_AT_EPOCH":21077,"BSTAR":0.00013723326,"MEAN_MOTION_DOT":6.7e-7,"MEAN_MOTION_DDOT":0},{"OBJECT_NAME":"ONEWEB-0326","OBJECT_ID":"2021-083K","EPOCH":"2026-01-22T05:50:44.179296","MEAN_MOTION":13.18685553,"ECCENTRICITY":0.00021462,"INCLINATION":87.9197,"RA_OF_ASC_NODE":4.428,"ARG_OF_PERICENTER":82.948,"MEAN_ANOMALY":277.1896,"EPHEMERIS_TYPE":0,"CLASSIFICATION_TYPE":"U","NORAD_CAT_ID":49195,"ELEMENT_SET_NO":999,"REV_AT_EPOCH":21076,"BSTAR":0.00020460558,"MEAN_MOTION_DOT":9.4e-7,"MEAN_MOTION_DDOT":0},{"OBJECT_NAME":"ONEWEB-0327","OBJECT_ID":"2021-083L","EPOCH":"2026-01-22T05:50:20.411520","MEAN_MOTION":13.18686611,"ECCENTRICITY":0.00020858,"INCLINATION":87.9187,"RA_OF_ASC_NODE":4.444,"ARG_OF_PERICENTER":78.3067,"MEAN_ANOMALY":281.8299,"EPHEMERIS_TYPE":0,"CLASSIFICATION_TYPE":"U","NORAD_CAT_ID":49196,"ELEMENT_SET_NO":999,"REV_AT_EPOCH":21078,"BSTAR":7.7324186e-5,"MEAN_MOTION_DOT":4.3e-7,"MEAN_MOTION_DDOT":0},{"OBJECT_NAME":"ONEWEB-0328","OBJECT_ID":"2021-083M","EPOCH":"2026-01-22T06:21:49.812768","MEAN_MOTION":13.13470427,"ECCENTRICITY":0.00018194,"INCLINATION":87.9015,"RA_OF_ASC_NODE":349.2017,"ARG_OF_PERICENTER":86.9996,"MEAN_ANOMALY":273.1341,"EPHEMERIS_TYPE":0,"CLASSIFICATION_TYPE":"U","NORAD_CAT_ID":49197,"ELEMENT_SET_NO":999,"REV_AT_EPOCH":21174,"BSTAR":0.00058774249,"MEAN_MOTION_DOT":2.27e-6,"MEAN_MOTION_DDOT":0},{"OBJECT_NAME":"ONEWEB-0331","OBJECT_ID":"2021-083N","EPOCH":"2026-01-22T05:41:01.601376","MEAN_MOTION":13.18685819,"ECCENTRICITY":0.00021718,"INCLINATION":87.9196,"RA_OF_ASC_NODE":4.4222,"ARG_OF_PERICENTER":87.5448,"MEAN_ANOMALY":272.5933,"EPHEMERIS_TYPE":0,"CLASSIFICATION_TYPE":"U","NORAD_CAT_ID":49198,"ELEMENT_SET_NO":999,"REV_AT_EPOCH":21077,"BSTAR":0.00022942108,"MEAN_MOTION_DOT":1.03e-6,"MEAN_MOTION_DDOT":0},{"OBJECT_NAME":"ONEWEB-0333","OBJECT_ID":"2021-083P","EPOCH":"2026-01-22T06:14:30.848928","MEAN_MOTION":13.13470757,"ECCENTRICITY":0.0001814,"INCLINATION":87.8999,"RA_OF_ASC_NODE":349.2488,"ARG_OF_PERICENTER":80.5155,"MEAN_ANOMALY":279.6179,"EPHEMERIS_TYPE":0,"CLASSIFICATION_TYPE":"U","NORAD_CAT_ID":49199,"ELEMENT_SET_NO":999,"REV_AT_EPOCH":21175,"BSTAR":0.00040232007,"MEAN_MOTION_DOT":1.6e-6,"MEAN_MOTION_DDOT":0}]
